{
  "type": "FeatureCollection",
  "features": [
    {
      "type": "Feature",
      "properties": {
        "norad_id": 34971,
        "name": "COSMOS 2251 DEB",
        "group": "cosmos-2251-debris",
        "lat": -39.80946935425794,
        "lon": 114.8326520396672,
        "alt_km": 700.7179075203085,
        "timestamp": "2025-12-14T20:40:32.168601+00:00",
        "meta_object_name": "COSMOS 2251 DEB",
        "meta_object_id": "1993-036AFA",
        "meta_epoch": "2025-12-11T13:03:07.178112",
        "meta_mean_motion": 14.55631176,
        "meta_eccentricity": 0.00696698,
        "meta_inclination": 73.9786,
        "meta_ra_of_asc_node": 287.2832,
        "meta_arg_of_pericenter": 153.3092,
        "meta_mean_anomaly": 329.2446,
        "meta_ephemeris_type": 0,
        "meta_classification_type": "U",
        "meta_norad_cat_id": 34971,
        "meta_element_set_no": 999,
        "meta_rev_at_epoch": 66155,
        "meta_bstar": 0.00028423964,
        "meta_mean_motion_dot": 1.251e-05,
        "meta_mean_motion_ddot": 0,
        "tle_line1": "1 34971U 93036AFA 25345.54383308  .00001251  00000+0  28424-3 0  9999",
        "tle_line2": "2 34971  73.9786 287.2832 0069669 153.3092 329.2446 14.55631176661559"
      },
      "geometry": {
        "type": "Point",
        "coordinates": [
          114.8326520396672,
          -39.80946935425794
        ]
      }
    },
    {
      "type": "Feature",
      "properties": {
        "norad_id": 34972,
        "name": "COSMOS 2251 DEB",
        "group": "cosmos-2251-debris",
        "lat": -58.73941380208957,
        "lon": -106.05609118772777,
        "alt_km": 639.970024952413,
        "timestamp": "2025-12-14T20:40:32.168612+00:00",
        "meta_object_name": "COSMOS 2251 DEB",
        "meta_object_id": "1993-036AFB",
        "meta_epoch": "2025-12-13T14:55:13.195200",
        "meta_mean_motion": 14.72905355,
        "meta_eccentricity": 0.00335804,
        "meta_inclination": 73.9887,
        "meta_ra_of_asc_node": 48.1347,
        "meta_arg_of_pericenter": 207.0311,
        "meta_mean_anomaly": 304.1293,
        "meta_ephemeris_type": 0,
        "meta_classification_type": "U",
        "meta_norad_cat_id": 34972,
        "meta_element_set_no": 999,
        "meta_rev_at_epoch": 87663,
        "meta_bstar": 0.00156938,
        "meta_mean_motion_dot": 0.00010131,
        "meta_mean_motion_ddot": 0,
        "tle_line1": "1 34972U 93036AFB 25347.62168050  .00010131  00000+0  15694-2 0  9997",
        "tle_line2": "2 34972  73.9887  48.1347 0033580 207.0311 304.1293 14.72905355876632"
      },
      "geometry": {
        "type": "Point",
        "coordinates": [
          -106.05609118772777,
          -58.73941380208957
        ]
      }
    },
    {
      "type": "Feature",
      "properties": {
        "norad_id": 34976,
        "name": "COSMOS 2251 DEB",
        "group": "cosmos-2251-debris",
        "lat": 4.156990521977657,
        "lon": -56.7122586277155,
        "alt_km": 609.8404564569564,
        "timestamp": "2025-12-14T20:40:32.168622+00:00",
        "meta_object_name": "COSMOS 2251 DEB",
        "meta_object_id": "1993-036AFF",
        "meta_epoch": "2025-12-13T14:17:16.255392",
        "meta_mean_motion": 14.76594044,
        "meta_eccentricity": 0.00478037,
        "meta_inclination": 74.0574,
        "meta_ra_of_asc_node": 304.5737,
        "meta_arg_of_pericenter": 351.1956,
        "meta_mean_anomaly": 125.2716,
        "meta_ephemeris_type": 0,
        "meta_classification_type": "U",
        "meta_norad_cat_id": 34976,
        "meta_element_set_no": 999,
        "meta_rev_at_epoch": 88286,
        "meta_bstar": 0.0019348412,
        "meta_mean_motion_dot": 0.0001376,
        "meta_mean_motion_ddot": 0,
        "tle_line1": "1 34976U 93036AFF 25347.59532703  .00013760  00000+0  19348-2 0  9998",
        "tle_line2": "2 34976  74.0574 304.5737 0047803 351.1956 125.2716 14.76594044882869"
      },
      "geometry": {
        "type": "Point",
        "coordinates": [
          -56.7122586277155,
          4.156990521977657
        ]
      }
    },
    {
      "type": "Feature",
      "properties": {
        "norad_id": 34979,
        "name": "COSMOS 2251 DEB",
        "group": "cosmos-2251-debris",
        "lat": 67.88063597068351,
        "lon": -52.15203044427203,
        "alt_km": 626.4882170964802,
        "timestamp": "2025-12-14T20:40:32.168632+00:00",
        "meta_object_name": "COSMOS 2251 DEB",
        "meta_object_id": "1993-036AFJ",
        "meta_epoch": "2025-12-13T19:59:51.046080",
        "meta_mean_motion": 14.79384637,
        "meta_eccentricity": 0.00490737,
        "meta_inclination": 74.0396,
        "meta_ra_of_asc_node": 265.1118,
        "meta_arg_of_pericenter": 342.7793,
        "meta_mean_anomaly": 17.1715,
        "meta_ephemeris_type": 0,
        "meta_classification_type": "U",
        "meta_norad_cat_id": 34979,
        "meta_element_set_no": 999,
        "meta_rev_at_epoch": 88236,
        "meta_bstar": 0.0014769456,
        "meta_mean_motion_dot": 0.00011222,
        "meta_mean_motion_ddot": 0,
        "tle_line1": "1 34979U 93036AFJ 25347.83322970  .00011222  00000+0  14769-2 0  9994",
        "tle_line2": "2 34979  74.0396 265.1118 0049073 342.7793  17.1715 14.79384637882366"
      },
      "geometry": {
        "type": "Point",
        "coordinates": [
          -52.15203044427203,
          67.88063597068351
        ]
      }
    },
    {
      "type": "Feature",
      "properties": {
        "norad_id": 34990,
        "name": "COSMOS 2251 DEB",
        "group": "cosmos-2251-debris",
        "lat": -68.57753494583386,
        "lon": 114.2156129387291,
        "alt_km": 750.6438604701298,
        "timestamp": "2025-12-14T20:40:32.168642+00:00",
        "meta_object_name": "COSMOS 2251 DEB",
        "meta_object_id": "1993-036AFN",
        "meta_epoch": "2025-12-13T23:31:06.015936",
        "meta_mean_motion": 14.42379588,
        "meta_eccentricity": 0.00165206,
        "meta_inclination": 74.0455,
        "meta_ra_of_asc_node": 249.0358,
        "meta_arg_of_pericenter": 311.5177,
        "meta_mean_anomaly": 48.4561,
        "meta_ephemeris_type": 0,
        "meta_classification_type": "U",
        "meta_norad_cat_id": 34990,
        "meta_element_set_no": 999,
        "meta_rev_at_epoch": 87364,
        "meta_bstar": 0.0004974881,
        "meta_mean_motion_dot": 1.621e-05,
        "meta_mean_motion_ddot": 0,
        "tle_line1": "1 34990U 93036AFN 25347.97993074  .00001621  00000+0  49749-3 0  9990",
        "tle_line2": "2 34990  74.0455 249.0358 0016520 311.5177  48.4561 14.42379588873649"
      },
      "geometry": {
        "type": "Point",
        "coordinates": [
          114.2156129387291,
          -68.57753494583386
        ]
      }
    },
    {
      "type": "Feature",
      "properties": {
        "norad_id": 34997,
        "name": "COSMOS 2251 DEB",
        "group": "cosmos-2251-debris",
        "lat": 73.38953829445781,
        "lon": 22.99769188761274,
        "alt_km": 799.533021292471,
        "timestamp": "2025-12-14T20:40:32.168652+00:00",
        "meta_object_name": "COSMOS 2251 DEB",
        "meta_object_id": "1993-036AFV",
        "meta_epoch": "2025-12-14T03:40:01.084512",
        "meta_mean_motion": 14.45585468,
        "meta_eccentricity": 0.00977103,
        "meta_inclination": 73.8806,
        "meta_ra_of_asc_node": 308.5363,
        "meta_arg_of_pericenter": 283.3348,
        "meta_mean_anomaly": 75.6929,
        "meta_ephemeris_type": 0,
        "meta_classification_type": "U",
        "meta_norad_cat_id": 34997,
        "meta_element_set_no": 999,
        "meta_rev_at_epoch": 70767,
        "meta_bstar": 0.0019000145,
        "meta_mean_motion_dot": 7.095e-05,
        "meta_mean_motion_ddot": 0,
        "tle_line1": "1 34997U 93036AFV 25348.15279033  .00007095  00000+0  19000-2 0  9997",
        "tle_line2": "2 34997  73.8806 308.5363 0097710 283.3348  75.6929 14.45585468707674"
      },
      "geometry": {
        "type": "Point",
        "coordinates": [
          22.99769188761274,
          73.38953829445781
        ]
      }
    },
    {
      "type": "Feature",
      "properties": {
        "norad_id": 34998,
        "name": "COSMOS 2251 DEB",
        "group": "cosmos-2251-debris",
        "lat": -6.536086909412257,
        "lon": 154.11583440867605,
        "alt_km": 722.1649900103475,
        "timestamp": "2025-12-14T20:40:32.168662+00:00",
        "meta_object_name": "COSMOS 2251 DEB",
        "meta_object_id": "1993-036AFW",
        "meta_epoch": "2025-12-13T22:12:36.791712",
        "meta_mean_motion": 14.49287964,
        "meta_eccentricity": 0.00211796,
        "meta_inclination": 74.0097,
        "meta_ra_of_asc_node": 157.7564,
        "meta_arg_of_pericenter": 303.0269,
        "meta_mean_anomaly": 208.2517,
        "meta_ephemeris_type": 0,
        "meta_classification_type": "U",
        "meta_norad_cat_id": 34998,
        "meta_element_set_no": 999,
        "meta_rev_at_epoch": 87437,
        "meta_bstar": 0.00072323889,
        "meta_mean_motion_dot": 2.74e-05,
        "meta_mean_motion_ddot": 0,
        "tle_line1": "1 34998U 93036AFW 25347.92542583  .00002740  00000+0  72324-3 0  9996",
        "tle_line2": "2 34998  74.0097 157.7564 0021179 303.0269 208.2517 14.49287964874378"
      },
      "geometry": {
        "type": "Point",
        "coordinates": [
          154.11583440867605,
          -6.536086909412257
        ]
      }
    }
  ]
}